[{"OBJECT_NAME":"STARLINK-36287","OBJECT_ID":"2026-025R","EPOCH":"2026-03-05T04:00:01.999584","MEAN_MOTION":15.7666826,"ECCENTRICITY":0.0001532,"INCLINATION":97.2858,"RA_OF_ASC_NODE":175.6165,"ARG_OF_PERICENTER":66.5286,"MEAN_ANOMALY":316.7725,"EPHEMERIS_TYPE":0,"CLASSIFICATION_TYPE":"U","NORAD_CAT_ID":67708,"ELEMENT_SET_NO":999,"REV_AT_EPOCH":528,"BSTAR":-0.011709,"MEAN_MOTION_DOT":-0.01623105,"MEAN_MOTION_DDOT":0},{"OBJECT_NAME":"STARLINK-36698","OBJECT_ID":"2026-025S","EPOCH":"2026-03-05T04:00:01.999584","MEAN_MOTION":15.77721073,"ECCENTRICITY":0.0001702,"INCLINATION":97.2854,"RA_OF_ASC_NODE":175.6344,"ARG_OF_PERICENTER":64.5724,"MEAN_ANOMALY":1.0087,"EPHEMERIS_TYPE":0,"CLASSIFICATION_TYPE":"U","NORAD_CAT_ID":67709,"ELEMENT_SET_NO":999,"REV_AT_EPOCH":513,"BSTAR":-0.012854,"MEAN_MOTION_DOT":-0.01873096,"MEAN_MOTION_DDOT":0},{"OBJECT_NAME":"STARLINK-36344","OBJECT_ID":"2026-025T","EPOCH":"2026-03-05T04:00:01.999584","MEAN_MOTION":15.7514812,"ECCENTRICITY":0.0001247,"INCLINATION":97.2855,"RA_OF_ASC_NODE":175.5979,"ARG_OF_PERICENTER":100.9717,"MEAN_ANOMALY":237.394,"EPHEMERIS_TYPE":0,"CLASSIFICATION_TYPE":"U","NORAD_CAT_ID":67710,"ELEMENT_SET_NO":999,"REV_AT_EPOCH":528,"BSTAR":0.00054195,"MEAN_MOTION_DOT":0.00081331,"MEAN_MOTION_DDOT":0},{"OBJECT_NAME":"STARLINK-36687","OBJECT_ID":"2026-025U","EPOCH":"2026-03-05T03:45:46.497024","MEAN_MOTION":15.80894033,"ECCENTRICITY":0.0001717,"INCLINATION":97.2852,"RA_OF_ASC_NODE":175.6183,"ARG_OF_PERICENTER":83.141,"MEAN_ANOMALY":277.0054,"EPHEMERIS_TYPE":0,"CLASSIFICATION_TYPE":"U","NORAD_CAT_ID":67711,"ELEMENT_SET_NO":999,"REV_AT_EPOCH":524,"BSTAR":0.0019002,"MEAN_MOTION_DOT":0.00381579,"MEAN_MOTION_DDOT":0},{"OBJECT_NAME":"STARLINK-36705","OBJECT_ID":"2026-025V","EPOCH":"2026-03-05T01:14:18.406752","MEAN_MOTION":15.7524549,"ECCENTRICITY":0.0001538,"INCLINATION":97.2873,"RA_OF_ASC_NODE":175.453,"ARG_OF_PERICENTER":73.792,"MEAN_ANOMALY":286.3515,"EPHEMERIS_TYPE":0,"CLASSIFICATION_TYPE":"U","NORAD_CAT_ID":67712,"ELEMENT_SET_NO":999,"REV_AT_EPOCH":521,"BSTAR":0.0018965,"MEAN_MOTION_DOT":0.00293392,"MEAN_MOTION_DDOT":0},{"OBJECT_NAME":"STARLINK-36708","OBJECT_ID":"2026-025W","EPOCH":"2026-03-03T05:55:33.590784","MEAN_MOTION":15.81043377,"ECCENTRICITY":0.00013277,"INCLINATION":97.2866,"RA_OF_ASC_NODE":173.622,"ARG_OF_PERICENTER":127.8035,"MEAN_ANOMALY":232.3354,"EPHEMERIS_TYPE":0,"CLASSIFICATION_TYPE":"U","NORAD_CAT_ID":67713,"ELEMENT_SET_NO":999,"REV_AT_EPOCH":493,"BSTAR":0.002764055,"MEAN_MOTION_DOT":0.00571415,"MEAN_MOTION_DDOT":0},{"OBJECT_NAME":"STARLINK-36702","OBJECT_ID":"2026-025X","EPOCH":"2026-03-05T00:30:45.298368","MEAN_MOTION":15.81111703,"ECCENTRICITY":0.0002575,"INCLINATION":97.2856,"RA_OF_ASC_NODE":175.4945,"ARG_OF_PERICENTER":228.1397,"MEAN_ANOMALY":131.9652,"EPHEMERIS_TYPE":0,"CLASSIFICATION_TYPE":"U","NORAD_CAT_ID":67714,"ELEMENT_SET_NO":999,"REV_AT_EPOCH":521,"BSTAR":0.0032317,"MEAN_MOTION_DOT":0.00678536,"MEAN_MOTION_DDOT":0},{"OBJECT_NAME":"STARLINK-36718","OBJECT_ID":"2026-025Y","EPOCH":"2026-03-04T21:19:31.355904","MEAN_MOTION":15.8079923,"ECCENTRICITY":0.0001428,"INCLINATION":97.2864,"RA_OF_ASC_NODE":175.3703,"ARG_OF_PERICENTER":41.8341,"MEAN_ANOMALY":318.3036,"EPHEMERIS_TYPE":0,"CLASSIFICATION_TYPE":"U","NORAD_CAT_ID":67715,"ELEMENT_SET_NO":999,"REV_AT_EPOCH":519,"BSTAR":0.0020085,"MEAN_MOTION_DOT":0.00402575,"MEAN_MOTION_DDOT":0},{"OBJECT_NAME":"STARLINK-36715","OBJECT_ID":"2026-025Z","EPOCH":"2026-03-05T03:27:06.471360","MEAN_MOTION":15.80916861,"ECCENTRICITY":0.0001577,"INCLINATION":97.2856,"RA_OF_ASC_NODE":175.6351,"ARG_OF_PERICENTER":89.6995,"MEAN_ANOMALY":270.4454,"EPHEMERIS_TYPE":0,"CLASSIFICATION_TYPE":"U","NORAD_CAT_ID":67716,"ELEMENT_SET_NO":999,"REV_AT_EPOCH":523,"BSTAR":0.0020679,"MEAN_MOTION_DOT":0.00417434,"MEAN_MOTION_DDOT":0},{"OBJECT_NAME":"STARLINK-36385","OBJECT_ID":"2026-025AA","EPOCH":"2026-03-05T03:36:06.581088","MEAN_MOTION":15.8087081,"ECCENTRICITY":0.0001462,"INCLINATION":97.2856,"RA_OF_ASC_NODE":175.6264,"ARG_OF_PERICENTER":94.63,"MEAN_ANOMALY":265.5135,"EPHEMERIS_TYPE":0,"CLASSIFICATION_TYPE":"U","NORAD_CAT_ID":67717,"ELEMENT_SET_NO":999,"REV_AT_EPOCH":523,"BSTAR":0.0018957,"MEAN_MOTION_DOT":0.00380207,"MEAN_MOTION_DDOT":0},{"OBJECT_NAME":"CZ-2F DEB","OBJECT_ID":"2026-024E","EPOCH":"2026-02-27T12:10:33.167712","MEAN_MOTION":15.20915897,"ECCENTRICITY":0.02465096,"INCLINATION":50.3169,"RA_OF_ASC_NODE":68.583,"ARG_OF_PERICENTER":240.0171,"MEAN_ANOMALY":117.6115,"EPHEMERIS_TYPE":0,"CLASSIFICATION_TYPE":"U","NORAD_CAT_ID":67718,"ELEMENT_SET_NO":999,"REV_AT_EPOCH":308,"BSTAR":0.0035886422,"MEAN_MOTION_DOT":0.00191604,"MEAN_MOTION_DDOT":0},{"OBJECT_NAME":"CZ-2F DEB","OBJECT_ID":"2026-024F","EPOCH":"2026-03-05T03:50:50.860032","MEAN_MOTION":15.02235917,"ECCENTRICITY":0.0315702,"INCLINATION":49.7929,"RA_OF_ASC_NODE":43.7256,"ARG_OF_PERICENTER":253.3053,"MEAN_ANOMALY":103.3021,"EPHEMERIS_TYPE":0,"CLASSIFICATION_TYPE":"U","NORAD_CAT_ID":67719,"ELEMENT_SET_NO":999,"REV_AT_EPOCH":356,"BSTAR":0.0040151,"MEAN_MOTION_DOT":0.00166774,"MEAN_MOTION_DDOT":0},{"OBJECT_NAME":"CZ-2F DEB","OBJECT_ID":"2026-024G","EPOCH":"2026-03-05T03:21:28.268928","MEAN_MOTION":14.99515427,"ECCENTRICITY":0.032656,"INCLINATION":49.8319,"RA_OF_ASC_NODE":44.3824,"ARG_OF_PERICENTER":249.368,"MEAN_ANOMALY":107.1961,"EPHEMERIS_TYPE":0,"CLASSIFICATION_TYPE":"U","NORAD_CAT_ID":67720,"ELEMENT_SET_NO":999,"REV_AT_EPOCH":387,"BSTAR":0.0037819,"MEAN_MOTION_DOT":0.00152557,"MEAN_MOTION_DDOT":0},{"OBJECT_NAME":"STARLINK-36772","OBJECT_ID":"2026-026A","EPOCH":"2026-03-05T04:00:01.999584","MEAN_MOTION":15.6533122,"ECCENTRICITY":0.0001936,"INCLINATION":97.2838,"RA_OF_ASC_NODE":118.5889,"ARG_OF_PERICENTER":60.4317,"MEAN_ANOMALY":47.9308,"EPHEMERIS_TYPE":0,"CLASSIFICATION_TYPE":"U","NORAD_CAT_ID":67721,"ELEMENT_SET_NO":999,"REV_AT_EPOCH":458,"BSTAR":-0.022054,"MEAN_MOTION_DOT":-0.01935347,"MEAN_MOTION_DDOT":0},{"OBJECT_NAME":"STARLINK-36796","OBJECT_ID":"2026-026B","EPOCH":"2026-03-05T04:00:01.999584","MEAN_MOTION":15.64465483,"ECCENTRICITY":0.0001872,"INCLINATION":97.2837,"RA_OF_ASC_NODE":118.588,"ARG_OF_PERICENTER":64.7596,"MEAN_ANOMALY":39.4278,"EPHEMERIS_TYPE":0,"CLASSIFICATION_TYPE":"U","NORAD_CAT_ID":67722,"ELEMENT_SET_NO":999,"REV_AT_EPOCH":458,"BSTAR":-0.022997,"MEAN_MOTION_DOT":-0.01947858,"MEAN_MOTION_DDOT":0},{"OBJECT_NAME":"STARLINK-36369","OBJECT_ID":"2026-026C","EPOCH":"2026-03-05T04:00:01.999584","MEAN_MOTION":15.64867282,"ECCENTRICITY":0.0001972,"INCLINATION":97.2838,"RA_OF_ASC_NODE":118.5928,"ARG_OF_PERICENTER":61.2472,"MEAN_ANOMALY":54.3243,"EPHEMERIS_TYPE":0,"CLASSIFICATION_TYPE":"U","NORAD_CAT_ID":67723,"ELEMENT_SET_NO":999,"REV_AT_EPOCH":458,"BSTAR":-0.022641,"MEAN_MOTION_DOT":-0.01948617,"MEAN_MOTION_DDOT":0},{"OBJECT_NAME":"STARLINK-36752","OBJECT_ID":"2026-026D","EPOCH":"2026-03-05T04:00:01.999584","MEAN_MOTION":15.66152204,"ECCENTRICITY":0.0001925,"INCLINATION":97.2839,"RA_OF_ASC_NODE":118.6028,"ARG_OF_PERICENTER":64.0493,"MEAN_ANOMALY":76.0958,"EPHEMERIS_TYPE":0,"CLASSIFICATION_TYPE":"U","NORAD_CAT_ID":67724,"ELEMENT_SET_NO":999,"REV_AT_EPOCH":458,"BSTAR":-0.021356,"MEAN_MOTION_DOT":-0.01936835,"MEAN_MOTION_DDOT":0}]
