STARLINK-36287          
1 67708U 26025R   26064.16668981 -.01623105  00000+0 -11709-1 0  9994
2 67708  97.2858 175.6165 0001532  66.5286 316.7725 15.76668260  5287
STARLINK-36698          
1 67709U 26025S   26064.16668981 -.01873096  00000+0 -12854-1 0  9993
2 67709  97.2854 175.6344 0001702  64.5724   1.0087 15.77721073  5139
STARLINK-36344          
1 67710U 26025T   26064.16668981  .00081331  00000+0  54195-3 0  9991
2 67710  97.2855 175.5979 0001247 100.9717 237.3940 15.75148120  5288
STARLINK-36687          
1 67711U 26025U   26064.15678816  .00381579  00000+0  19002-2 0  9993
2 67711  97.2852 175.6183 0001717  83.1410 277.0054 15.80894033  5248
STARLINK-36705          
1 67712U 26025V   26064.05160193  .00293392  00000+0  18965-2 0  9999
2 67712  97.2873 175.4530 0001538  73.7920 286.3515 15.75245490  5211
STARLINK-36708          
1 67713U 26025W   26062.24691656  .00571415  00000+0  27641-2 0  9998
2 67713  97.2866 173.6220 0001327 127.8035 232.3354 15.81043377  4931
STARLINK-36702          
1 67714U 26025X   26064.02135762  .00678536  00000+0  32317-2 0  9996
2 67714  97.2856 175.4945 0002575 228.1397 131.9652 15.81111703  5213
STARLINK-36718          
1 67715U 26025Y   26063.88855736  .00402575  00000+0  20085-2 0  9997
2 67715  97.2864 175.3703 0001428  41.8341 318.3036 15.80799230  5199
STARLINK-36715          
1 67716U 26025Z   26064.14382490  .00417434  00000+0  20679-2 0  9999
2 67716  97.2856 175.6351 0001577  89.6995 270.4454 15.80916861  5231
STARLINK-36385          
1 67717U 26025AA  26064.15007617  .00380207  00000+0  18957-2 0  9999
2 67717  97.2856 175.6264 0001462  94.6300 265.5135 15.80870810  5238
CZ-2F DEB               
1 67718U 26024E   26058.50732833  .00191604  00000+0  35886-2 0  9997
2 67718  50.3169  68.5830 0246509 240.0171 117.6115 15.20915897  3086
CZ-2F DEB               
1 67719U 26024F   26064.16031088  .00166774  00000+0  40151-2 0  9992
2 67719  49.7929  43.7256 0315702 253.3053 103.3021 15.02235917  3567
CZ-2F DEB               
1 67720U 26024G   26064.13991052  .00152557  00000+0  37819-2 0  9998
2 67720  49.8319  44.3824 0326560 249.3680 107.1961 14.99515427  3877
STARLINK-36772          
1 67721U 26026A   26064.16668981 -.01935347  00000+0 -22054-1 0  9999
2 67721  97.2838 118.5889 0001936  60.4317  47.9308 15.65331220  4588
STARLINK-36796          
1 67722U 26026B   26064.16668981 -.01947858  00000+0 -22997-1 0  9996
2 67722  97.2837 118.5880 0001872  64.7596  39.4278 15.64465483  4584
STARLINK-36369          
1 67723U 26026C   26064.16668981 -.01948617  00000+0 -22641-1 0  9997
2 67723  97.2838 118.5928 0001972  61.2472  54.3243 15.64867282  4586
STARLINK-36752          
1 67724U 26026D   26064.16668981 -.01936835  00000+0 -21356-1 0  9999
2 67724  97.2839 118.6028 0001925  64.0493  76.0958 15.66152204  4589
